CCSDS_OMM_VERS = 2.0
CREATION_DATE  = 
ORIGINATOR     = 

OBJECT_NAME    = STARLINK-33921
OBJECT_ID      = 2025-225AA
CENTER_NAME    = EARTH
REF_FRAME      = TEME
TIME_SYSTEM    = UTC
MEAN_ELEMENT_THEORY = SGP/SGP4

EPOCH          = 2025-11-06T16:36:53.250336
MEAN_MOTION    = 15.49347447
ECCENTRICITY   = .00011836
INCLINATION    = 53.1600
RA_OF_ASC_NODE = 18.6213
ARG_OF_PERICENTER = 84.0636
MEAN_ANOMALY   = 276.0508

EPHEMERIS_TYPE = 0
CLASSIFICATION_TYPE = U
NORAD_CAT_ID   = 65934
ELEMENT_SET_NO = 999
REV_AT_EPOCH   = 466
BSTAR          = .12577476E-2
MEAN_MOTION_DOT = .70229E-3
MEAN_MOTION_DDOT = 0

CCSDS_OMM_VERS = 2.0
CREATION_DATE  = 
ORIGINATOR     = 

OBJECT_NAME    = STARLINK-35155
OBJECT_ID      = 2025-225AB
CENTER_NAME    = EARTH
REF_FRAME      = TEME
TIME_SYSTEM    = UTC
MEAN_ELEMENT_THEORY = SGP/SGP4

EPOCH          = 2025-11-06T18:09:17.766432
MEAN_MOTION    = 15.49330678
ECCENTRICITY   = .00026751
INCLINATION    = 53.1601
RA_OF_ASC_NODE = 18.3105
ARG_OF_PERICENTER = 57.2060
MEAN_ANOMALY   = 302.9207

EPHEMERIS_TYPE = 0
CLASSIFICATION_TYPE = U
NORAD_CAT_ID   = 65935
ELEMENT_SET_NO = 999
REV_AT_EPOCH   = 467
BSTAR          = .14253557E-2
MEAN_MOTION_DOT = .79703E-3
MEAN_MOTION_DDOT = 0

CCSDS_OMM_VERS = 2.0
CREATION_DATE  = 
ORIGINATOR     = 

OBJECT_NAME    = STARLINK-35161
OBJECT_ID      = 2025-225AC
CENTER_NAME    = EARTH
REF_FRAME      = TEME
TIME_SYSTEM    = UTC
MEAN_ELEMENT_THEORY = SGP/SGP4

EPOCH          = 2025-11-06T16:35:24.659232
MEAN_MOTION    = 15.49350300
ECCENTRICITY   = .00011616
INCLINATION    = 53.1600
RA_OF_ASC_NODE = 18.6148
ARG_OF_PERICENTER = 88.9886
MEAN_ANOMALY   = 271.1257

EPHEMERIS_TYPE = 0
CLASSIFICATION_TYPE = U
NORAD_CAT_ID   = 65936
ELEMENT_SET_NO = 999
REV_AT_EPOCH   = 466
BSTAR          = .12222551E-2
MEAN_MOTION_DOT = .68224E-3
MEAN_MOTION_DDOT = 0

CCSDS_OMM_VERS = 2.0
CREATION_DATE  = 
ORIGINATOR     = 

OBJECT_NAME    = STARLINK-35473
OBJECT_ID      = 2025-225AD
CENTER_NAME    = EARTH
REF_FRAME      = TEME
TIME_SYSTEM    = UTC
MEAN_ELEMENT_THEORY = SGP/SGP4

EPOCH          = 2025-11-06T19:40:41.902752
MEAN_MOTION    = 15.49331529
ECCENTRICITY   = .00013114
INCLINATION    = 53.1599
RA_OF_ASC_NODE = 17.9964
ARG_OF_PERICENTER = 74.0555
MEAN_ANOMALY   = 286.0599

EPHEMERIS_TYPE = 0
CLASSIFICATION_TYPE = U
NORAD_CAT_ID   = 65937
ELEMENT_SET_NO = 999
REV_AT_EPOCH   = 468
BSTAR          = .14229652E-2
MEAN_MOTION_DOT = .79565E-3
MEAN_MOTION_DDOT = 0

CCSDS_OMM_VERS = 2.0
CREATION_DATE  = 
ORIGINATOR     = 

OBJECT_NAME    = 2025-226A
OBJECT_ID      = 2025-226A
CENTER_NAME    = EARTH
REF_FRAME      = TEME
TIME_SYSTEM    = UTC
MEAN_ELEMENT_THEORY = SGP/SGP4

EPOCH          = 2025-11-06T22:48:03.324672
MEAN_MOTION    = 15.11991682
ECCENTRICITY   = .00151263
INCLINATION    = 97.6666
RA_OF_ASC_NODE = 25.1627
ARG_OF_PERICENTER = 187.9453
MEAN_ANOMALY   = 172.1540

EPHEMERIS_TYPE = 0
CLASSIFICATION_TYPE = U
NORAD_CAT_ID   = 65938
ELEMENT_SET_NO = 999
REV_AT_EPOCH   = 406
BSTAR          = .81244818E-3
MEAN_MOTION_DOT = .13933E-3
MEAN_MOTION_DDOT = 0

CCSDS_OMM_VERS = 2.0
CREATION_DATE  = 
ORIGINATOR     = 

OBJECT_NAME    = 2025-226B
OBJECT_ID      = 2025-226B
CENTER_NAME    = EARTH
REF_FRAME      = TEME
TIME_SYSTEM    = UTC
MEAN_ELEMENT_THEORY = SGP/SGP4

EPOCH          = 2025-11-06T23:33:46.499616
MEAN_MOTION    = 15.09789707
ECCENTRICITY   = .00212078
INCLINATION    = 97.6618
RA_OF_ASC_NODE = 25.1070
ARG_OF_PERICENTER = 191.3914
MEAN_ANOMALY   = 168.6838

EPHEMERIS_TYPE = 0
CLASSIFICATION_TYPE = U
NORAD_CAT_ID   = 65939
ELEMENT_SET_NO = 999
REV_AT_EPOCH   = 405
BSTAR          = .41609496E-3
MEAN_MOTION_DOT = .6692E-4
MEAN_MOTION_DDOT = 0

CCSDS_OMM_VERS = 2.0
CREATION_DATE  = 
ORIGINATOR     = 

OBJECT_NAME    = 2025-226C
OBJECT_ID      = 2025-226C
CENTER_NAME    = EARTH
REF_FRAME      = TEME
TIME_SYSTEM    = UTC
MEAN_ELEMENT_THEORY = SGP/SGP4

EPOCH          = 2025-11-06T22:50:54.890016
MEAN_MOTION    = 15.11879524
ECCENTRICITY   = .00150904
INCLINATION    = 97.6575
RA_OF_ASC_NODE = 25.1301
ARG_OF_PERICENTER = 185.9823
MEAN_ANOMALY   = 174.1229

EPHEMERIS_TYPE = 0
CLASSIFICATION_TYPE = U
NORAD_CAT_ID   = 65940
ELEMENT_SET_NO = 999
REV_AT_EPOCH   = 405
BSTAR          = .10289556E-2
MEAN_MOTION_DOT = .17618E-3
MEAN_MOTION_DDOT = 0

CCSDS_OMM_VERS = 2.0
CREATION_DATE  = 
ORIGINATOR     = 

OBJECT_NAME    = YOTSUBA-KULOVER
OBJECT_ID      = 1998-067XN
CENTER_NAME    = EARTH
REF_FRAME      = TEME
TIME_SYSTEM    = UTC
MEAN_ELEMENT_THEORY = SGP/SGP4

EPOCH          = 2025-11-06T07:28:28.864416
MEAN_MOTION    = 15.53808670
ECCENTRICITY   = .00026285
INCLINATION    = 51.6323
RA_OF_ASC_NODE = 322.2864
ARG_OF_PERICENTER = 13.3948
MEAN_ANOMALY   = 346.7112

EPHEMERIS_TYPE = 0
CLASSIFICATION_TYPE = U
NORAD_CAT_ID   = 65941
ELEMENT_SET_NO = 999
REV_AT_EPOCH   = 418
BSTAR          = .10916774E-2
MEAN_MOTION_DOT = .71602E-3
MEAN_MOTION_DDOT = 0

CCSDS_OMM_VERS = 2.0
CREATION_DATE  = 
ORIGINATOR     = 

OBJECT_NAME    = BOTAN
OBJECT_ID      = 1998-067XP
CENTER_NAME    = EARTH
REF_FRAME      = TEME
TIME_SYSTEM    = UTC
MEAN_ELEMENT_THEORY = SGP/SGP4

EPOCH          = 2025-11-06T22:41:13.124256
MEAN_MOTION    = 15.54973125
ECCENTRICITY   = .00049677
INCLINATION    = 51.6322
RA_OF_ASC_NODE = 319.0210
ARG_OF_PERICENTER = 31.2909
MEAN_ANOMALY   = 328.8377

EPHEMERIS_TYPE = 0
CLASSIFICATION_TYPE = U
NORAD_CAT_ID   = 65942
ELEMENT_SET_NO = 999
REV_AT_EPOCH   = 428
BSTAR          = .96954947E-3
MEAN_MOTION_DOT = .66291E-3
MEAN_MOTION_DDOT = 0

CCSDS_OMM_VERS = 2.0
CREATION_DATE  = 
ORIGINATOR     = 

OBJECT_NAME    = E-KAGAKU-1
OBJECT_ID      = 1998-067XQ
CENTER_NAME    = EARTH
REF_FRAME      = TEME
TIME_SYSTEM    = UTC
MEAN_ELEMENT_THEORY = SGP/SGP4

EPOCH          = 2025-11-05T11:23:48.792192
MEAN_MOTION    = 15.53691300
ECCENTRICITY   = .00043857
INCLINATION    = 51.6326
RA_OF_ASC_NODE = 326.4510
ARG_OF_PERICENTER = 13.9907
MEAN_ANOMALY   = 346.1204

EPHEMERIS_TYPE = 0
CLASSIFICATION_TYPE = U
NORAD_CAT_ID   = 65943
ELEMENT_SET_NO = 999
REV_AT_EPOCH   = 405
BSTAR          = .85729517E-3
MEAN_MOTION_DOT = .55785E-3
MEAN_MOTION_DDOT = 0

CCSDS_OMM_VERS = 2.0
CREATION_DATE  = 
ORIGINATOR     = 

OBJECT_NAME    = 2025-226D
OBJECT_ID      = 2025-226D
CENTER_NAME    = EARTH
REF_FRAME      = TEME
TIME_SYSTEM    = UTC
MEAN_ELEMENT_THEORY = SGP/SGP4

EPOCH          = 2025-11-06T09:00:29.187648
MEAN_MOTION    = 15.48107374
ECCENTRICITY   = .00194852
INCLINATION    = 97.6537
RA_OF_ASC_NODE = 25.1428
ARG_OF_PERICENTER = 276.7437
MEAN_ANOMALY   = 83.1595

EPHEMERIS_TYPE = 0
CLASSIFICATION_TYPE = U
NORAD_CAT_ID   = 65944
ELEMENT_SET_NO = 999
REV_AT_EPOCH   = 399
BSTAR          = .37671012E-1
MEAN_MOTION_DOT = .2250373E-1
MEAN_MOTION_DDOT = 0

CCSDS_OMM_VERS = 2.0
CREATION_DATE  = 
ORIGINATOR     = 

OBJECT_NAME    = SHIYAN-31
OBJECT_ID      = 2025-227A
CENTER_NAME    = EARTH
REF_FRAME      = TEME
TIME_SYSTEM    = UTC
MEAN_ELEMENT_THEORY = SGP/SGP4

EPOCH          = 2025-11-06T22:41:20.565888
MEAN_MOTION    = 15.20464892
ECCENTRICITY   = .00115872
INCLINATION    = 80.0055
RA_OF_ASC_NODE = 69.4743
ARG_OF_PERICENTER = 187.7114
MEAN_ANOMALY   = 172.3937

EPHEMERIS_TYPE = 0
CLASSIFICATION_TYPE = U
NORAD_CAT_ID   = 65945
ELEMENT_SET_NO = 999
REV_AT_EPOCH   = 373
BSTAR          = .56897385E-3
MEAN_MOTION_DOT = .12468E-3
MEAN_MOTION_DDOT = 0

