STARLINK-33921          
1 65934U 25225AA  25310.69228299  .00070229  00000+0  12577-2 0  9994
2 65934  53.1600  18.6213 0001183  84.0636 276.0508 15.49347447  4667
STARLINK-35155          
1 65935U 25225AB  25310.75645563  .00079703  00000+0  14254-2 0  9999
2 65935  53.1601  18.3105 0002675  57.2060 302.9207 15.49330678  4670
STARLINK-35161          
1 65936U 25225AC  25310.69125763  .00068224  00000+0  12223-2 0  9998
2 65936  53.1600  18.6148 0001161  88.9886 271.1257 15.49350300  4661
STARLINK-35473          
1 65937U 25225AD  25310.81992943  .00079565  00000+0  14230-2 0  9995
2 65937  53.1599  17.9964 0001311  74.0555 286.0599 15.49331529  4681
2025-226A               
1 65938U 25226A   25310.95003848  .00013933  00000+0  81245-3 0  9997
2 65938  97.6666  25.1627 0015126 187.9453 172.1540 15.11991682  4061
2025-226B               
1 65939U 25226B   25310.98178819  .00006692  00000+0  41609-3 0  9996
2 65939  97.6618  25.1070 0021207 191.3914 168.6838 15.09789707  4058
2025-226C               
1 65940U 25226C   25310.95202419  .00017618  00000+0  10290-2 0  9990
2 65940  97.6575  25.1301 0015090 185.9823 174.1229 15.11879524  4056
YOTSUBA-KULOVER         
1 65941U 98067XN  25310.31144519  .00071602  00000+0  10917-2 0  9999
2 65941  51.6323 322.2864 0002628  13.3948 346.7112 15.53808670  4180
BOTAN                   
1 65942U 98067XP  25310.94529079  .00066291  00000+0  96955-3 0  9992
2 65942  51.6322 319.0210 0004967  31.2909 328.8377 15.54973125  4287
E-KAGAKU-1              
1 65943U 98067XQ  25309.47487028  .00055785  00000+0  85730-3 0  9991
2 65943  51.6326 326.4510 0004385  13.9907 346.1204 15.53691300  4054
2025-226D               
1 65944U 25226D   25310.37533782  .02250373  00000+0  37671-1 0  9990
2 65944  97.6537  25.1428 0019485 276.7437  83.1595 15.48107374  3994
SHIYAN-31               
1 65945U 25227A   25310.94537692  .00012468  00000+0  56897-3 0  9991
2 65945  80.0055  69.4743 0011587 187.7114 172.3937 15.20464892  3739
